KUIPER-00191            
1 67143U 25301L   26187.46968964 -.00000295  00000+0 -96450-5 0  9994
2 67143  51.8997 267.9051 0000738  99.2833 260.8213 14.79920439 31244
KUIPER-00196            
1 67144U 25301M   26188.47166197  .00001172  00000+0  19795-3 0  9993
2 67144  51.8963 219.6635 0000822 324.0719  36.0186 14.76339254 31974
KUIPER-00204            
1 67145U 25301N   26188.14085218  .00001636  00000+0  24368-3 0  9999
2 67145  51.8998 237.4198 0000225  84.4461 275.6527 14.79916058 31812
KUIPER-00210            
1 67146U 25301P   26188.24627688  .00000310  00000+0  69636-4 0  9990
2 67146  51.9006 264.4242 0000677 105.3575 254.7462 14.79921604 31509
KUIPER-00221            
1 67147U 25301Q   26188.20442711  .00000399  00000+0  81334-4 0  9995
2 67147  51.8996 272.1312 0000891 119.6371 240.4680 14.79924534 31229
KUIPER-00232            
1 67148U 25301R   26188.18684600  .00000662  00000+0  11583-3 0  9999
2 67148  51.8972 257.2339 0000745 111.9931 248.1111 14.79924420 31422
KUIPER-00241            
1 67149U 25301S   26188.27730852 -.00006262  00000+0 -79295-3 0  9999
2 67149  51.9041 266.8306 0001002 118.8315 241.2749 14.79941521 31635
KUIPER-00245            
1 67150U 25301T   26188.26924738  .00002632  00000+0  37422-3 0  9999
2 67150  51.9018 274.3782 0000732 114.0596 246.0443 14.79926114 31197
KUIPER-00246            
1 67151U 25301U   26187.44130353  .00000621  00000+0  11043-3 0  9998
2 67151  51.8987 262.9916 0000700 105.4200 254.6840 14.79933084 31308
KUIPER-00247            
1 67152U 25301V   26188.19491617  .00002193  00000+0  31653-3 0  9990
2 67152  51.8952 249.6355 0000556  98.8338 261.2687 14.79932466 31537
KUIPER-00248            
1 67153U 25301W   26188.14633410  .00001556  00000+0  23340-3 0  9991
2 67153  51.8969 232.4778 0000956  67.8363 292.2701 14.79882406 31936
KUIPER-00249            
1 67154U 25301X   26188.19763226  .00000597  00000+0  10733-3 0  9992
2 67154  51.8986 247.1790 0000700 114.9378 245.1657 14.79924103 31567
KUIPER-00250            
1 67155U 25301Y   26187.40483139  .00002978  00000+0  41960-3 0  9999
2 67155  51.8982 265.6384 0000643  94.1491 265.9545 14.79915411 31275
KUIPER-00251            
1 67156U 25301Z   26188.16115676 -.00001995  00000+0 -23285-3 0  9992
2 67156  51.8979 249.8627 0000466  42.2447 317.8551 14.79925998 31718
KUIPER-00252            
1 67157U 25301AA  26187.48316179  .00000440  00000+0  86737-4 0  9992
2 67157  51.8987 255.3110 0000558  94.9564 265.1462 14.79932053 31393
KUIPER-00261            
1 67158U 25301AB  26188.18145003 -.00000031  00000+0  24883-4 0  9998
2 67158  51.9000 262.2750 0000715 112.1334 247.9704 14.79919972 31359
