{"fetched_at":"2026-07-07T18:29:04.699Z","source":"https://celestrak.org/NORAD/elements/gp.php?GROUP=kuiper&FORMAT=JSON","constellation":"kuiper","records":[{"OBJECT_NAME":"KUIPER-00191","OBJECT_ID":"2025-301L","EPOCH":"2026-07-06T11:16:21.184896","CLASSIFICATION_TYPE":"U","MEAN_MOTION":14.79920439,"ECCENTRICITY":0.0000738,"INCLINATION":51.8997,"RA_OF_ASC_NODE":267.9051,"ARG_OF_PERICENTER":99.2833,"MEAN_ANOMALY":260.8213,"EPHEMERIS_TYPE":0,"NORAD_CAT_ID":67143,"ELEMENT_SET_NO":999,"REV_AT_EPOCH":3124,"BSTAR":-0.000009645,"MEAN_MOTION_DOT":-0.00000295,"MEAN_MOTION_DDOT":0},{"OBJECT_NAME":"KUIPER-00196","OBJECT_ID":"2025-301M","EPOCH":"2026-07-07T11:19:11.594208","CLASSIFICATION_TYPE":"U","MEAN_MOTION":14.76339254,"ECCENTRICITY":0.0000822,"INCLINATION":51.8963,"RA_OF_ASC_NODE":219.6635,"ARG_OF_PERICENTER":324.0719,"MEAN_ANOMALY":36.0186,"EPHEMERIS_TYPE":0,"NORAD_CAT_ID":67144,"ELEMENT_SET_NO":999,"REV_AT_EPOCH":3197,"BSTAR":0.00019795,"MEAN_MOTION_DOT":0.00001172,"MEAN_MOTION_DDOT":0},{"OBJECT_NAME":"KUIPER-00204","OBJECT_ID":"2025-301N","EPOCH":"2026-07-07T03:22:49.628352","CLASSIFICATION_TYPE":"U","MEAN_MOTION":14.79916058,"ECCENTRICITY":0.0000225,"INCLINATION":51.8998,"RA_OF_ASC_NODE":237.4198,"ARG_OF_PERICENTER":84.4461,"MEAN_ANOMALY":275.6527,"EPHEMERIS_TYPE":0,"NORAD_CAT_ID":67145,"ELEMENT_SET_NO":999,"REV_AT_EPOCH":3181,"BSTAR":0.00024368,"MEAN_MOTION_DOT":0.00001636,"MEAN_MOTION_DDOT":0},{"OBJECT_NAME":"KUIPER-00210","OBJECT_ID":"2025-301P","EPOCH":"2026-07-07T05:54:38.322432","CLASSIFICATION_TYPE":"U","MEAN_MOTION":14.79921604,"ECCENTRICITY":0.0000677,"INCLINATION":51.9006,"RA_OF_ASC_NODE":264.4242,"ARG_OF_PERICENTER":105.3575,"MEAN_ANOMALY":254.7462,"EPHEMERIS_TYPE":0,"NORAD_CAT_ID":67146,"ELEMENT_SET_NO":999,"REV_AT_EPOCH":3150,"BSTAR":0.000069636,"MEAN_MOTION_DOT":0.0000031,"MEAN_MOTION_DDOT":0},{"OBJECT_NAME":"KUIPER-00221","OBJECT_ID":"2025-301Q","EPOCH":"2026-07-07T04:54:22.502304","CLASSIFICATION_TYPE":"U","MEAN_MOTION":14.79924534,"ECCENTRICITY":0.0000891,"INCLINATION":51.8996,"RA_OF_ASC_NODE":272.1312,"ARG_OF_PERICENTER":119.6371,"MEAN_ANOMALY":240.468,"EPHEMERIS_TYPE":0,"NORAD_CAT_ID":67147,"ELEMENT_SET_NO":999,"REV_AT_EPOCH":3122,"BSTAR":0.000081334,"MEAN_MOTION_DOT":0.00000399,"MEAN_MOTION_DDOT":0},{"OBJECT_NAME":"KUIPER-00232","OBJECT_ID":"2025-301R","EPOCH":"2026-07-07T04:29:03.494400","CLASSIFICATION_TYPE":"U","MEAN_MOTION":14.7992442,"ECCENTRICITY":0.0000745,"INCLINATION":51.8972,"RA_OF_ASC_NODE":257.2339,"ARG_OF_PERICENTER":111.9931,"MEAN_ANOMALY":248.1111,"EPHEMERIS_TYPE":0,"NORAD_CAT_ID":67148,"ELEMENT_SET_NO":999,"REV_AT_EPOCH":3142,"BSTAR":0.00011583,"MEAN_MOTION_DOT":0.00000662,"MEAN_MOTION_DDOT":0},{"OBJECT_NAME":"KUIPER-00241","OBJECT_ID":"2025-301S","EPOCH":"2026-07-07T06:39:19.456128","CLASSIFICATION_TYPE":"U","MEAN_MOTION":14.79941521,"ECCENTRICITY":0.0001002,"INCLINATION":51.9041,"RA_OF_ASC_NODE":266.8306,"ARG_OF_PERICENTER":118.8315,"MEAN_ANOMALY":241.2749,"EPHEMERIS_TYPE":0,"NORAD_CAT_ID":67149,"ELEMENT_SET_NO":999,"REV_AT_EPOCH":3163,"BSTAR":-0.00079295,"MEAN_MOTION_DOT":-0.00006262,"MEAN_MOTION_DDOT":0},{"OBJECT_NAME":"KUIPER-00245","OBJECT_ID":"2025-301T","EPOCH":"2026-07-07T06:27:42.973632","CLASSIFICATION_TYPE":"U","MEAN_MOTION":14.79926114,"ECCENTRICITY":0.0000732,"INCLINATION":51.9018,"RA_OF_ASC_NODE":274.3782,"ARG_OF_PERICENTER":114.0596,"MEAN_ANOMALY":246.0443,"EPHEMERIS_TYPE":0,"NORAD_CAT_ID":67150,"ELEMENT_SET_NO":999,"REV_AT_EPOCH":3119,"BSTAR":0.00037422,"MEAN_MOTION_DOT":0.00002632,"MEAN_MOTION_DDOT":0},{"OBJECT_NAME":"KUIPER-00246","OBJECT_ID":"2025-301U","EPOCH":"2026-07-06T10:35:28.624992","CLASSIFICATION_TYPE":"U","MEAN_MOTION":14.79933084,"ECCENTRICITY":0.00007,"INCLINATION":51.8987,"RA_OF_ASC_NODE":262.9916,"ARG_OF_PERICENTER":105.42,"MEAN_ANOMALY":254.684,"EPHEMERIS_TYPE":0,"NORAD_CAT_ID":67151,"ELEMENT_SET_NO":999,"REV_AT_EPOCH":3130,"BSTAR":0.00011043,"MEAN_MOTION_DOT":0.00000621,"MEAN_MOTION_DDOT":0},{"OBJECT_NAME":"KUIPER-00247","OBJECT_ID":"2025-301V","EPOCH":"2026-07-07T04:40:40.757088","CLASSIFICATION_TYPE":"U","MEAN_MOTION":14.79932466,"ECCENTRICITY":0.0000556,"INCLINATION":51.8952,"RA_OF_ASC_NODE":249.6355,"ARG_OF_PERICENTER":98.8338,"MEAN_ANOMALY":261.2687,"EPHEMERIS_TYPE":0,"NORAD_CAT_ID":67152,"ELEMENT_SET_NO":999,"REV_AT_EPOCH":3153,"BSTAR":0.00031653,"MEAN_MOTION_DOT":0.00002193,"MEAN_MOTION_DDOT":0},{"OBJECT_NAME":"KUIPER-00248","OBJECT_ID":"2025-301W","EPOCH":"2026-07-07T03:30:43.266240","CLASSIFICATION_TYPE":"U","MEAN_MOTION":14.79882406,"ECCENTRICITY":0.0000956,"INCLINATION":51.8969,"RA_OF_ASC_NODE":232.4778,"ARG_OF_PERICENTER":67.8363,"MEAN_ANOMALY":292.2701,"EPHEMERIS_TYPE":0,"NORAD_CAT_ID":67153,"ELEMENT_SET_NO":999,"REV_AT_EPOCH":3193,"BSTAR":0.0002334,"MEAN_MOTION_DOT":0.00001556,"MEAN_MOTION_DDOT":0},{"OBJECT_NAME":"KUIPER-00249","OBJECT_ID":"2025-301X","EPOCH":"2026-07-07T04:44:35.427264","CLASSIFICATION_TYPE":"U","MEAN_MOTION":14.79924103,"ECCENTRICITY":0.00007,"INCLINATION":51.8986,"RA_OF_ASC_NODE":247.179,"ARG_OF_PERICENTER":114.9378,"MEAN_ANOMALY":245.1657,"EPHEMERIS_TYPE":0,"NORAD_CAT_ID":67154,"ELEMENT_SET_NO":999,"REV_AT_EPOCH":3156,"BSTAR":0.00010733,"MEAN_MOTION_DOT":0.00000597,"MEAN_MOTION_DDOT":0},{"OBJECT_NAME":"KUIPER-00250","OBJECT_ID":"2025-301Y","EPOCH":"2026-07-06T09:42:57.432096","CLASSIFICATION_TYPE":"U","MEAN_MOTION":14.79915411,"ECCENTRICITY":0.0000643,"INCLINATION":51.8982,"RA_OF_ASC_NODE":265.6384,"ARG_OF_PERICENTER":94.1491,"MEAN_ANOMALY":265.9545,"EPHEMERIS_TYPE":0,"NORAD_CAT_ID":67155,"ELEMENT_SET_NO":999,"REV_AT_EPOCH":3127,"BSTAR":0.0004196,"MEAN_MOTION_DOT":0.00002978,"MEAN_MOTION_DDOT":0},{"OBJECT_NAME":"KUIPER-00251","OBJECT_ID":"2025-301Z","EPOCH":"2026-07-07T03:52:03.944064","CLASSIFICATION_TYPE":"U","MEAN_MOTION":14.79925998,"ECCENTRICITY":0.0000466,"INCLINATION":51.8979,"RA_OF_ASC_NODE":249.8627,"ARG_OF_PERICENTER":42.2447,"MEAN_ANOMALY":317.8551,"EPHEMERIS_TYPE":0,"NORAD_CAT_ID":67156,"ELEMENT_SET_NO":999,"REV_AT_EPOCH":3171,"BSTAR":-0.00023285,"MEAN_MOTION_DOT":-0.00001995,"MEAN_MOTION_DDOT":0},{"OBJECT_NAME":"KUIPER-00252","OBJECT_ID":"2025-301AA","EPOCH":"2026-07-06T11:35:45.178656","CLASSIFICATION_TYPE":"U","MEAN_MOTION":14.79932053,"ECCENTRICITY":0.0000558,"INCLINATION":51.8987,"RA_OF_ASC_NODE":255.311,"ARG_OF_PERICENTER":94.9564,"MEAN_ANOMALY":265.1462,"EPHEMERIS_TYPE":0,"NORAD_CAT_ID":67157,"ELEMENT_SET_NO":999,"REV_AT_EPOCH":3139,"BSTAR":0.000086737,"MEAN_MOTION_DOT":0.0000044,"MEAN_MOTION_DDOT":0},{"OBJECT_NAME":"KUIPER-00261","OBJECT_ID":"2025-301AB","EPOCH":"2026-07-07T04:21:17.282592","CLASSIFICATION_TYPE":"U","MEAN_MOTION":14.79919972,"ECCENTRICITY":0.0000715,"INCLINATION":51.9,"RA_OF_ASC_NODE":262.275,"ARG_OF_PERICENTER":112.1334,"MEAN_ANOMALY":247.9704,"EPHEMERIS_TYPE":0,"NORAD_CAT_ID":67158,"ELEMENT_SET_NO":999,"REV_AT_EPOCH":3135,"BSTAR":0.000024883,"MEAN_MOTION_DOT":-3.1e-7,"MEAN_MOTION_DDOT":0}]}
